start=new Date('2022-04-23T00:00:00.000Z').valueOf();
sats=[{"MEAN_ELEMENT_THEORY":"SGP4","RA_OF_ASC_NODE":"252.4638","MEAN_MOTION":"15.38387199","APOAPSIS":"453.402","OBJECT_NAME":"STARLINK-1232","OBJECT_ID":"2020-012AM","INCLINATION":"53.0595","RCS_SIZE":"LARGE","PERIOD":"93.605","TLE_LINE1":"1 45213U 20012AM  22112.09917731  .00012676  00000-0  33961-3 0  9992","BSTAR":"0.00033961000000","PERIAPSIS":"448.358","MEAN_MOTION_DOT":"0.00012676","NORAD_CAT_ID":"45213","TLE_LINE2":"2 45213  53.0595 252.4638 0003693  60.8176 299.3196 15.38387199121718","GP_ID":"201821297","FILE":"3411458","REF_FRAME":"TEME","CLASSIFICATION_TYPE":"U","OBJECT_TYPE":"PAYLOAD","SITE":"AFETR","EPHEMERIS_TYPE":"0","ARG_OF_PERICENTER":"60.8176","LAUNCH_DATE":"2020-02-17","COUNTRY_CODE":"US","MEAN_MOTION_DDOT":"0.0000000000000","ECCENTRICITY":"0.00036930","EPOCH":"2022-04-22T02:22:48.919584","ELEMENT_SET_NO":"999","DECAY_DATE":null,"CENTER_NAME":"EARTH","SEMIMAJOR_AXIS":"6829.015","TIME_SYSTEM":"UTC","MEAN_ANOMALY":"299.3196","REV_AT_EPOCH":"12171"},{"RCS_SIZE":"LARGE","INCLINATION":"53.0539","PERIOD":"95.592","TLE_LINE1":"1 45214U 20012AN  22112.44654018  .00001320  00000-0  10748-3 0  9990","RA_OF_ASC_NODE":"268.8757","MEAN_ELEMENT_THEORY":"SGP4","OBJECT_NAME":"STARLINK-1233","MEAN_MOTION":"15.06405933","APOAPSIS":"548.282","OBJECT_ID":"2020-012AN","FILE":"3411458","NORAD_CAT_ID":"45214","TLE_LINE2":"2 45214  53.0539 268.8757 0001569  61.8091 298.3056 15.06405933121500","GP_ID":"201822548","REF_FRAME":"TEME","CLASSIFICATION_TYPE":"U","BSTAR":"0.00010748000000","PERIAPSIS":"546.109","MEAN_MOTION_DOT":"0.00001320","MEAN_MOTION_DDOT":"0.0000000000000","COUNTRY_CODE":"US","LAUNCH_DATE":"2020-02-17","ARG_OF_PERICENTER":"61.8091","OBJECT_TYPE":"PAYLOAD","SITE":"AFETR","EPHEMERIS_TYPE":"0","ELEMENT_SET_NO":"999","CENTER_NAME":"EARTH","DECAY_DATE":null,"SEMIMAJOR_AXIS":"6925.330","TIME_SYSTEM":"UTC","REV_AT_EPOCH":"12150","MEAN_ANOMALY":"298.3056","ECCENTRICITY":"0.00015690","EPOCH":"2022-04-22T10:43:01.071552"},{"OBJECT_NAME":"STARLINK-1245","APOAPSIS":"548.191","MEAN_MOTION":"15.06401606","RA_OF_ASC_NODE":"268.8844","MEAN_ELEMENT_THEORY":"SGP4","OBJECT_ID":"2020-012AP","INCLINATION":"53.0558","RCS_SIZE":"LARGE","TLE_LINE1":"1 45215U 20012AP  22112.44285221  .00001442  00000-0  11568-3 0  9993","PERIOD":"95.592","BSTAR":"0.00011568000000","MEAN_MOTION_DOT":"0.00001442","PERIAPSIS":"546.226","REF_FRAME":"TEME","FILE":"3411458","TLE_LINE2":"2 45215  53.0558 268.8844 0001419  74.1833 285.9312 15.06401606121447","GP_ID":"201822798","NORAD_CAT_ID":"45215","CLASSIFICATION_TYPE":"U","ARG_OF_PERICENTER":"74.1833","SITE":"AFETR","OBJECT_TYPE":"PAYLOAD","EPHEMERIS_TYPE":"0","MEAN_MOTION_DDOT":"0.0000000000000","COUNTRY_CODE":"US","LAUNCH_DATE":"2020-02-17","ECCENTRICITY":"0.00014190","EPOCH":"2022-04-22T10:37:42.430944","CENTER_NAME":"EARTH","DECAY_DATE":null,"ELEMENT_SET_NO":"999","REV_AT_EPOCH":"12144","MEAN_ANOMALY":"285.9312","TIME_SYSTEM":"UTC","SEMIMAJOR_AXIS":"6925.344"},{"TIME_SYSTEM":"UTC","SEMIMAJOR_AXIS":"6925.349","MEAN_ANOMALY":"291.0768","REV_AT_EPOCH":"12062","ELEMENT_SET_NO":"999","DECAY_DATE":null,"CENTER_NAME":"EARTH","EPOCH":"2022-04-22T19:33:47.533536","ECCENTRICITY":"0.00015210","LAUNCH_DATE":"2020-02-17","MEAN_MOTION_DDOT":"0.0000000000000","COUNTRY_CODE":"US","SITE":"AFETR","OBJECT_TYPE":"PAYLOAD","EPHEMERIS_TYPE":"0","ARG_OF_PERICENTER":"69.0384","CLASSIFICATION_TYPE":"U","NORAD_CAT_ID":"45217","TLE_LINE2":"2 45217  53.0549 267.2192 0001521  69.0384 291.0768 15.06399695120622","GP_ID":"201831690","FILE":"3411631","REF_FRAME":"TEME","PERIAPSIS":"546.161","MEAN_MOTION_DOT":"0.00000570","BSTAR":"0.00005718700000","PERIOD":"95.592","TLE_LINE1":"1 45217U 20012AR  22112.81513349  .00000570  00000-0  57187-4 0  9990","INCLINATION":"53.0549","RCS_SIZE":"LARGE","OBJECT_ID":"2020-012AR","MEAN_ELEMENT_THEORY":"SGP4","RA_OF_ASC_NODE":"267.2192","APOAPSIS":"548.268","MEAN_MOTION":"15.06399695","OBJECT_NAME":"STARLINK-1271"},{"MEAN_MOTION_DDOT":"0.0000000000000","COUNTRY_CODE":"US","LAUNCH_DATE":"2020-02-17","ARG_OF_PERICENTER":"57.0956","SITE":"AFETR","OBJECT_TYPE":"PAYLOAD","EPHEMERIS_TYPE":"0","SEMIMAJOR_AXIS":"6925.338","TIME_SYSTEM":"UTC","REV_AT_EPOCH":"12088","MEAN_ANOMALY":"303.0180","ELEMENT_SET_NO":"999","CENTER_NAME":"EARTH","DECAY_DATE":null,"EPOCH":"2022-04-22T17:55:35.299776","ECCENTRICITY":"0.00015310","PERIOD":"95.592","TLE_LINE1":"1 45219U 20012AT  22112.74693634  .00002500  00000-0  18665-3 0  9992","INCLINATION":"53.0553","RCS_SIZE":"LARGE","OBJECT_ID":"2020-012AT","RA_OF_ASC_NODE":"247.5228","MEAN_ELEMENT_THEORY":"SGP4","OBJECT_NAME":"STARLINK-1187","MEAN_MOTION":"15.06403561","APOAPSIS":"548.263","CLASSIFICATION_TYPE":"U","FILE":"3411621","TLE_LINE2":"2 45219  53.0553 247.5228 0001531  57.0956 303.0180 15.06403561120881","NORAD_CAT_ID":"45219","GP_ID":"201831020","REF_FRAME":"TEME","PERIAPSIS":"546.142","MEAN_MOTION_DOT":"0.00002500","BSTAR":"0.00018665000000"},{"REV_AT_EPOCH":"12180","MEAN_ANOMALY":"299.2879","SEMIMAJOR_AXIS":"6925.337","TIME_SYSTEM":"UTC","CENTER_NAME":"EARTH","DECAY_DATE":null,"ELEMENT_SET_NO":"999","EPOCH":"2022-04-22T13:14:17.384640","ECCENTRICITY":"0.00014950","COUNTRY_CODE":"US","MEAN_MOTION_DDOT":"0.0000000000000","LAUNCH_DATE":"2020-02-17","ARG_OF_PERICENTER":"60.8259","SITE":"AFETR","OBJECT_TYPE":"PAYLOAD","EPHEMERIS_TYPE":"0","CLASSIFICATION_TYPE":"U","REF_FRAME":"TEME","FILE":"3411458","TLE_LINE2":"2 45221  53.0545 248.4095 0001495  60.8259 299.2879 15.06403928121805","GP_ID":"201822049","NORAD_CAT_ID":"45221","MEAN_MOTION_DOT":"0.00002349","PERIAPSIS":"546.166","BSTAR":"0.00017649000000","TLE_LINE1":"1 45221U 20012AV  22112.55159010  .00002349  00000-0  17649-3 0  9991","PERIOD":"95.592","INCLINATION":"53.0545","RCS_SIZE":"LARGE","OBJECT_ID":"2020-012AV","OBJECT_NAME":"STARLINK-1189","MEAN_MOTION":"15.06403928","APOAPSIS":"548.237","RA_OF_ASC_NODE":"248.4095","MEAN_ELEMENT_THEORY":"SGP4"},{"BSTAR":"-0.00002855400000","MEAN_MOTION_DOT":"-0.00000707","PERIAPSIS":"546.093","REF_FRAME":"TEME","FILE":"3411458","GP_ID":"201822299","TLE_LINE2":"2 45222  53.0524 248.3615 0001660  58.2883 301.8268 15.06390404121804","NORAD_CAT_ID":"45222","CLASSIFICATION_TYPE":"U","OBJECT_NAME":"STARLINK-1191","MEAN_MOTION":"15.06390404","APOAPSIS":"548.393","RA_OF_ASC_NODE":"248.3615","MEAN_ELEMENT_THEORY":"SGP4","OBJECT_ID":"2020-012AW","RCS_SIZE":"LARGE","INCLINATION":"53.0524","TLE_LINE1":"1 45222U 20012AW  22112.55896833 -.00000707  00000-0 -28554-4 0  9999","PERIOD":"95.593","ECCENTRICITY":"0.00016600","EPOCH":"2022-04-22T13:24:54.863712","CENTER_NAME":"EARTH","DECAY_DATE":null,"ELEMENT_SET_NO":"999","REV_AT_EPOCH":"12180","MEAN_ANOMALY":"301.8268","TIME_SYSTEM":"UTC","SEMIMAJOR_AXIS":"6925.378","ARG_OF_PERICENTER":"58.2883","SITE":"AFETR","OBJECT_TYPE":"PAYLOAD","EPHEMERIS_TYPE":"0","COUNTRY_CODE":"US","MEAN_MOTION_DDOT":"0.0000000000000","LAUNCH_DATE":"2020-02-17"},{"EPOCH":"2022-04-22T10:45:39.985344","ECCENTRICITY":"0.00018160","TIME_SYSTEM":"UTC","SEMIMAJOR_AXIS":"6925.333","MEAN_ANOMALY":"310.4750","REV_AT_EPOCH":"12179","ELEMENT_SET_NO":"999","DECAY_DATE":null,"CENTER_NAME":"EARTH","SITE":"AFETR","OBJECT_TYPE":"PAYLOAD","EPHEMERIS_TYPE":"0","ARG_OF_PERICENTER":"49.6397","LAUNCH_DATE":"2020-02-17","MEAN_MOTION_DDOT":"0.0000000000000","COUNTRY_CODE":"US","PERIAPSIS":"545.940","MEAN_MOTION_DOT":"0.00002275","BSTAR":"0.00017157000000","CLASSIFICATION_TYPE":"U","TLE_LINE2":"2 45223  53.0550 248.8740 0001816  49.6397 310.4750 15.06405089121791","NORAD_CAT_ID":"45223","GP_ID":"201821048","FILE":"3411458","REF_FRAME":"TEME","OBJECT_ID":"2020-012AX","MEAN_ELEMENT_THEORY":"SGP4","RA_OF_ASC_NODE":"248.8740","MEAN_MOTION":"15.06405089","APOAPSIS":"548.456","OBJECT_NAME":"STARLINK-1212","PERIOD":"95.592","TLE_LINE1":"1 45223U 20012AX  22112.44837946  .00002275  00000-0  17157-3 0  9994","RCS_SIZE":"LARGE","INCLINATION":"53.0550"},{"ECCENTRICITY":"0.00067120","EPOCH":"2022-04-22T16:03:07.768224","ELEMENT_SET_NO":"999","DECAY_DATE":null,"CENTER_NAME":"EARTH","TIME_SYSTEM":"UTC","SEMIMAJOR_AXIS":"6705.162","MEAN_ANOMALY":"317.3833","REV_AT_EPOCH":"12299","OBJECT_TYPE":"PAYLOAD","SITE":"AFETR","EPHEMERIS_TYPE":"0","ARG_OF_PERICENTER":"42.7710","LAUNCH_DATE":"2020-02-17","MEAN_MOTION_DDOT":"0.0000000000000","COUNTRY_CODE":"US","BSTAR":"0.00060001000000","PERIAPSIS":"322.527","MEAN_MOTION_DOT":"0.00121437","GP_ID":"201831156","TLE_LINE2":"2 45224  53.0434  95.6774 0006712  42.7710 317.3833 15.81207385122994","NORAD_CAT_ID":"45224","FILE":"3411629","REF_FRAME":"TEME","CLASSIFICATION_TYPE":"U","MEAN_ELEMENT_THEORY":"SGP4","RA_OF_ASC_NODE":"95.6774","MEAN_MOTION":"15.81207385","APOAPSIS":"331.528","OBJECT_NAME":"STARLINK-1214","OBJECT_ID":"2020-012AY","INCLINATION":"53.0434","RCS_SIZE":"LARGE","PERIOD":"91.070","TLE_LINE1":"1 45224U 20012AY  22112.66883991  .00121437  00000-0  60001-3 0  9998"},{"ARG_OF_PERICENTER":"58.5489","SITE":"AFETR","EPHEMERIS_TYPE":"0","OBJECT_TYPE":"PAYLOAD","COUNTRY_CODE":"US","MEAN_MOTION_DDOT":"0.0000000000000","LAUNCH_DATE":"2020-02-17","EPOCH":"2022-04-22T12:47:44.881440","ECCENTRICITY":"0.00020700","SEMIMAJOR_AXIS":"6925.341","TIME_SYSTEM":"UTC","REV_AT_EPOCH":"12175","MEAN_ANOMALY":"301.5702","ELEMENT_SET_NO":"999","CENTER_NAME":"EARTH","DECAY_DATE":null,"OBJECT_ID":"2020-012AZ","RA_OF_ASC_NODE":"248.4712","MEAN_ELEMENT_THEORY":"SGP4","OBJECT_NAME":"STARLINK-1215","MEAN_MOTION":"15.06402387","APOAPSIS":"548.640","PERIOD":"95.592","TLE_LINE1":"1 45225U 20012AZ  22112.53315835  .00001724  00000-0  13463-3 0  9998","RCS_SIZE":"LARGE","INCLINATION":"53.0550","PERIAPSIS":"545.773","MEAN_MOTION_DOT":"0.00001724","BSTAR":"0.00013463000000","CLASSIFICATION_TYPE":"U","FILE":"3411458","TLE_LINE2":"2 45225  53.0550 248.4712 0002070  58.5489 301.5702 15.06402387121754","NORAD_CAT_ID":"45225","GP_ID":"201822549","REF_FRAME":"TEME"}];
